QIANFAN-81              
1 63167U 25046J   25201.61915060  .00000097  00000+0  13165-3 0  9992
2 63167  88.9849 334.8185 0015181 173.1793 186.9567 13.50957085 27891
QIANFAN-82              
1 63168U 25046K   25201.57787004  .00000103  00000+0  14077-3 0  9994
2 63168  88.9849 334.8662 0013072 179.9874 180.1280 13.50958462 27879
QIANFAN-83              
1 63169U 25046L   25201.59945183  .00000132  00000+0  15549-3 0  9998
2 63169  88.9849 334.9244 0014542 173.8053 186.3287 13.61926676 27848
QIANFAN-84              
1 63170U 25046M   25201.60675235  .00000121  00000+0  16935-3 0  9998
2 63170  88.9849 334.9964 0016137 177.9467 182.1753 13.50958685 27806
QIANFAN-85              
1 63171U 25046N   25201.60264932  .00000094  00000+0  12674-3 0  9992
2 63171  88.9848 334.8692 0013448 179.0719 181.0459 13.50954914 27877
QIANFAN-86              
1 63172U 25046P   25201.61088299  .00000102  00000+0  13961-3 0  9994
2 63172  88.9851 334.7270 0011219 181.7015 178.4100 13.50955043 27952
QIANFAN-87              
1 63173U 25046Q   25201.58195383  .00000102  00000+0  13917-3 0  9995
2 63173  88.9847 334.8471 0012082 177.3510 182.7707 13.50955331 27885
QIANFAN-88              
1 63174U 25046R   25201.59862544  .00000095  00000+0  12791-3 0  9997
2 63174  88.9849 334.7965 0012188 185.4994 174.6025 13.50955346 27911
